{"type": "FeatureCollection", "features": [ {"type": "Feature", "properties": {"norad_id": 66946, "name": "STARLINK-36115", "group": "last-30-days", "lat": 52.6775924752006, "lon": 109.84678434623736, "alt_km": 299.09007903965176, "timestamp": "2025-12-16T17:51:09.663462+00:00", "meta": {"OBJECT_NAME": "STARLINK-36115", "OBJECT_ID": "2025-286X", "EPOCH": "2025-12-15T22:00:01.999584", "MEAN_MOTION": 15.90731299, "ECCENTRICITY": 5.561e-05, "INCLINATION": 53.1558, "RA_OF_ASC_NODE": 34.4618, "ARG_OF_PERICENTER": 94.665, "MEAN_ANOMALY": 292.8454, "EPHEMERIS_TYPE": 0, "CLASSIFICATION_TYPE": "U", "NORAD_CAT_ID": 66946, "ELEMENT_SET_NO": 999, "REV_AT_EPOCH": 250, "BSTAR": -0.0046217451, "MEAN_MOTION_DOT": -0.0130267, "MEAN_MOTION_DDOT": 0}, "tle": {"line1": "1 66946U 25286X   25349.91668981 -.01302670  00000+0 -46217-2 0  9997", "line2": "2 66946  53.1558  34.4618 0000556  94.6650 292.8454 15.90731299  2509"}}, "geometry": {"type": "Point", "coordinates": [109.84678434623736, 52.6775924752006]}}, {"type": "Feature", "properties": {"norad_id": 66947, "name": "STARLINK-36089", "group": "last-30-days", "lat": 53.09399872582236, "lon": 117.10662462435958, "alt_km": 298.73592670838843, "timestamp": "2025-12-16T17:51:09.663474+00:00", "meta": {"OBJECT_NAME": "STARLINK-36089", "OBJECT_ID": "2025-286Y", "EPOCH": "2025-12-15T22:00:01.999584", "MEAN_MOTION": 15.90830853, "ECCENTRICITY": 6.56e-05, "INCLINATION": 53.1558, "RA_OF_ASC_NODE": 34.4532, "ARG_OF_PERICENTER": 86.8541, "MEAN_ANOMALY": 304.7971, "EPHEMERIS_TYPE": 0, "CLASSIFICATION_TYPE": "U", "NORAD_CAT_ID": 66947, "ELEMENT_SET_NO": 999, "REV_AT_EPOCH": 250, "BSTAR": -0.0046568266, "MEAN_MOTION_DOT": -0.0148457, "MEAN_MOTION_DDOT": 0.00062087508}, "tle": {"line1": "1 66947U 25286Y   25349.91668981 -.01484570  62088-3 -46568-2 0  9995", "line2": "2 66947  53.1558  34.4532 0000656  86.8541 304.7971 15.90830853  2501"}}, "geometry": {"type": "Point", "coordinates": [117.10662462435958, 53.09399872582236]}}, {"type": "Feature", "properties": {"norad_id": 66948, "name": "STARLINK-36116", "group": "last-30-days", "lat": 52.96691222852759, "lon": 113.91968949275912, "alt_km": 298.9370589848968, "timestamp": "2025-12-16T17:51:09.663486+00:00", "meta": {"OBJECT_NAME": "STARLINK-36116", "OBJECT_ID": "2025-286Z", "EPOCH": "2025-12-15T22:00:01.999584", "MEAN_MOTION": 15.90782394, "ECCENTRICITY": 5.612e-05, "INCLINATION": 53.1559, "RA_OF_ASC_NODE": 34.4568, "ARG_OF_PERICENTER": 95.6115, "MEAN_ANOMALY": 294.2442, "EPHEMERIS_TYPE": 0, "CLASSIFICATION_TYPE": "U", "NORAD_CAT_ID": 66948, "ELEMENT_SET_NO": 999, "REV_AT_EPOCH": 250, "BSTAR": -0.0046383847, "MEAN_MOTION_DOT": -0.01475138, "MEAN_MOTION_DDOT": 0.00061339919}, "tle": {"line1": "1 66948U 25286Z   25349.91668981 -.01475138  61340-3 -46384-2 0  9992", "line2": "2 66948  53.1559  34.4568 0000561  95.6115 294.2442 15.90782394  2504"}}, "geometry": {"type": "Point", "coordinates": [113.91968949275912, 52.96691222852759]}}, {"type": "Feature", "properties": {"norad_id": 66949, "name": "STARLINK-36096", "group": "last-30-days", "lat": 53.13550631760265, "lon": 120.37783198205497, "alt_km": 298.62784020962226, "timestamp": "2025-12-16T17:51:09.663497+00:00", "meta": {"OBJECT_NAME": "STARLINK-36096", "OBJECT_ID": "2025-286AA", "EPOCH": "2025-12-15T22:00:01.999584", "MEAN_MOTION": 15.90879867, "ECCENTRICITY": 6.562e-05, "INCLINATION": 53.1559, "RA_OF_ASC_NODE": 34.4495, "ARG_OF_PERICENTER": 87.2328, "MEAN_ANOMALY": 306.2554, "EPHEMERIS_TYPE": 0, "CLASSIFICATION_TYPE": "U", "NORAD_CAT_ID": 66949, "ELEMENT_SET_NO": 999, "REV_AT_EPOCH": 250, "BSTAR": -0.0046733304, "MEAN_MOTION_DOT": -0.01493462, "MEAN_MOTION_DDOT": 0.00062798632}, "tle": {"line1": "1 66949U 25286AA  25349.91668981 -.01493462  62799-3 -46733-2 0  9990", "line2": "2 66949  53.1559  34.4495 0000656  87.2328 306.2554 15.90879867  2502"}}, "geometry": {"type": "Point", "coordinates": [120.37783198205497, 53.13550631760265]}}, {"type": "Feature", "properties": {"norad_id": 66950, "name": "STARLINK-36111", "group": "last-30-days", "lat": 52.93088799086091, "lon": 127.21817467493341, "alt_km": 298.4564397688473, "timestamp": "2025-12-16T17:51:09.663507+00:00", "meta": {"OBJECT_NAME": "STARLINK-36111", "OBJECT_ID": "2025-286AB", "EPOCH": "2025-12-15T22:00:01.999584", "MEAN_MOTION": 15.90977968, "ECCENTRICITY": 6.003e-05, "INCLINATION": 53.1559, "RA_OF_ASC_NODE": 34.4415, "ARG_OF_PERICENTER": 84.8708, "MEAN_ANOMALY": 312.4601, "EPHEMERIS_TYPE": 0, "CLASSIFICATION_TYPE": "U", "NORAD_CAT_ID": 66950, "ELEMENT_SET_NO": 999, "REV_AT_EPOCH": 250, "BSTAR": -0.0046785301, "MEAN_MOTION_DOT": -0.0150254, "MEAN_MOTION_DDOT": 0.000635581}, "tle": {"line1": "1 66950U 25286AB  25349.91668981 -.01502540  63558-3 -46785-2 0  9991", "line2": "2 66950  53.1559  34.4415 0000600  84.8708 312.4601 15.90977968  2503"}}, "geometry": {"type": "Point", "coordinates": [127.21817467493341, 52.93088799086091]}}, {"type": "Feature", "properties": {"norad_id": 66951, "name": "STARLINK-35999", "group": "last-30-days", "lat": 52.6647081670799, "lon": 130.79532596003216, "alt_km": 298.36552330559334, "timestamp": "2025-12-16T17:51:09.663517+00:00", "meta": {"OBJECT_NAME": "STARLINK-35999", "OBJECT_ID": "2025-286AC", "EPOCH": "2025-12-15T22:00:01.999584", "MEAN_MOTION": 15.91030124, "ECCENTRICITY": 6.328e-05, "INCLINATION": 53.1559, "RA_OF_ASC_NODE": 34.4371, "ARG_OF_PERICENTER": 84.1723, "MEAN_ANOMALY": 315.2032, "EPHEMERIS_TYPE": 0, "CLASSIFICATION_TYPE": "U", "NORAD_CAT_ID": 66951, "ELEMENT_SET_NO": 999, "REV_AT_EPOCH": 250, "BSTAR": -0.0046966169, "MEAN_MOTION_DOT": -0.01512268, "MEAN_MOTION_DDOT": 0.00064345029}, "tle": {"line1": "1 66951U 25286AC  25349.91668981 -.01512268  64345-3 -46966-2 0  9996", "line2": "2 66951  53.1559  34.4371 0000632  84.1723 315.2032 15.91030124  2504"}}, "geometry": {"type": "Point", "coordinates": [130.79532596003216, 52.6647081670799]}}, {"type": "Feature", "properties": {"norad_id": 66952, "name": "STARLINK-36122", "group": "last-30-days", "lat": 53.08045781608126, "lon": 123.87327284377265, "alt_km": 298.5406195154628, "timestamp": "2025-12-16T17:51:09.663527+00:00", "meta": {"OBJECT_NAME": "STARLINK-36122", "OBJECT_ID": "2025-286AD", "EPOCH": "2025-12-15T22:00:01.999584", "MEAN_MOTION": 15.90929445, "ECCENTRICITY": 6.195e-05, "INCLINATION": 53.156, "RA_OF_ASC_NODE": 34.4455, "ARG_OF_PERICENTER": 81.8946, "MEAN_ANOMALY": 313.5524, "EPHEMERIS_TYPE": 0, "CLASSIFICATION_TYPE": "U", "NORAD_CAT_ID": 66952, "ELEMENT_SET_NO": 999, "REV_AT_EPOCH": 250, "BSTAR": -0.0046750427, "MEAN_MOTION_DOT": -0.01497752, "MEAN_MOTION_DDOT": 0.00063158798}, "tle": {"line1": "1 66952U 25286AD  25349.91668981 -.01497752  63159-3 -46750-2 0  9990", "line2": "2 66952  53.1560  34.4455 0000619  81.8946 313.5524 15.90929445  2505"}}, "geometry": {"type": "Point", "coordinates": [123.87327284377265, 53.08045781608126]}}, {"type": "Feature", "properties": {"norad_id": 66953, "name": "HULIANWANG DIGUI-114", "group": "last-30-days", "lat": 70.61825521603174, "lon": 154.6654728594399, "alt_km": 996.8664632920136, "timestamp": "2025-12-16T17:51:09.663538+00:00", "meta": {"OBJECT_NAME": "HULIANWANG DIGUI-114", "OBJECT_ID": "2025-287A", "EPOCH": "2025-12-15T20:15:59.937408", "MEAN_MOTION": 13.68689195, "ECCENTRICITY": 0.00087999, "INCLINATION": 86.496, "RA_OF_ASC_NODE": 345.0232, "ARG_OF_PERICENTER": 195.8466, "MEAN_ANOMALY": 164.2419, "EPHEMERIS_TYPE": 0, "CLASSIFICATION_TYPE": "U", "NORAD_CAT_ID": 66953, "ELEMENT_SET_NO": 999, "REV_AT_EPOCH": 95, "BSTAR": 2.5636052e-05, "MEAN_MOTION_DOT": 3.9e-07, "MEAN_MOTION_DDOT": 0}, "tle": {"line1": "1 66953U 25287A   25349.84444372  .00000039  00000+0  25636-4 0  9999", "line2": "2 66953  86.4960 345.0232 0008799 195.8466 164.2419 13.68689195   952"}}, "geometry": {"type": "Point", "coordinates": [154.6654728594399, 70.61825521603174]}}, {"type": "Feature", "properties": {"norad_id": 66954, "name": "HULIANWANG DIGUI-115", "group": "last-30-days", "lat": 67.81116668650057, "lon": 156.06223639268006, "alt_km": 996.2450456454135, "timestamp": "2025-12-16T17:51:09.663548+00:00", "meta": {"OBJECT_NAME": "HULIANWANG DIGUI-115", "OBJECT_ID": "2025-287B", "EPOCH": "2025-12-15T06:13:08.738688", "MEAN_MOTION": 13.6879189, "ECCENTRICITY": 0.0008784, "INCLINATION": 86.4971, "RA_OF_ASC_NODE": 345.2403, "ARG_OF_PERICENTER": 196.1208, "MEAN_ANOMALY": 163.9673, "EPHEMERIS_TYPE": 0, "CLASSIFICATION_TYPE": "U", "NORAD_CAT_ID": 66954, "ELEMENT_SET_NO": 999, "REV_AT_EPOCH": 87, "BSTAR": 2.6102444e-05, "MEAN_MOTION_DOT": 3.9e-07, "MEAN_MOTION_DDOT": 0}, "tle": {"line1": "1 66954U 25287B   25349.25912892  .00000039  00000+0  26102-4 0  9991", "line2": "2 66954  86.4971 345.2403 0008784 196.1208 163.9673 13.68791890   874"}}, "geometry": {"type": "Point", "coordinates": [156.06223639268006, 67.81116668650057]}}, {"type": "Feature", "properties": {"norad_id": 66955, "name": "HULIANWANG DIGUI-116", "group": "last-30-days", "lat": 64.68901629585616, "lon": 157.2330621443164, "alt_km": 995.3366588954023, "timestamp": "2025-12-16T17:51:09.663559+00:00", "meta": {"OBJECT_NAME": "HULIANWANG DIGUI-116", "OBJECT_ID": "2025-287C", "EPOCH": "2025-12-14T02:08:18.133728", "MEAN_MOTION": 13.68903211, "ECCENTRICITY": 0.00080818, "INCLINATION": 86.4907, "RA_OF_ASC_NODE": 345.6576, "ARG_OF_PERICENTER": 193.9217, "MEAN_ANOMALY": 166.172, "EPHEMERIS_TYPE": 0, "CLASSIFICATION_TYPE": "U", "NORAD_CAT_ID": 66955, "ELEMENT_SET_NO": 999, "REV_AT_EPOCH": 71, "BSTAR": 2.5654516e-05, "MEAN_MOTION_DOT": 3.9e-07, "MEAN_MOTION_DDOT": 0}, "tle": {"line1": "1 66955U 25287C   25348.08909877  .00000039  00000+0  25655-4 0  9993", "line2": "2 66955  86.4907 345.6576 0008081 193.9217 166.1720 13.68903211   717"}}, "geometry": {"type": "Point", "coordinates": [157.2330621443164, 64.68901629585616]}}]}